{"type": "FeatureCollection", "features": [ {"type": "Feature", "properties": {"norad_id": 66446, "name": "STARLINK-34986", "group": "last-30-days", "lat": 27.81119585698757, "lon": -135.04781820246265, "alt_km": 409.9118989644394, "timestamp": "2025-12-07T05:38:08.683756+00:00", "meta": {"OBJECT_NAME": "STARLINK-34986", "OBJECT_ID": "2025-259AA", "EPOCH": "2025-12-06T13:35:32.239968", "MEAN_MOTION": 15.50753463, "ECCENTRICITY": 0.00016496, "INCLINATION": 43.0005, "RA_OF_ASC_NODE": 83.3408, "ARG_OF_PERICENTER": 252.8918, "MEAN_ANOMALY": 107.1761, "EPHEMERIS_TYPE": 0, "CLASSIFICATION_TYPE": "U", "NORAD_CAT_ID": 66446, "ELEMENT_SET_NO": 999, "REV_AT_EPOCH": 521, "BSTAR": 0.0032778091, "MEAN_MOTION_DOT": 0.00198125, "MEAN_MOTION_DDOT": 0}, "tle": {"line1": "1 66446U 25259AA  25340.56634537  .00198125  00000+0  32778-2 0  9996", "line2": "2 66446  43.0005  83.3408 0001649 252.8918 107.1761 15.50753463  5211"}}, "geometry": {"type": "Point", "coordinates": [-135.04781820246265, 27.81119585698757]}}, {"type": "Feature", "properties": {"norad_id": 66447, "name": "STARLINK-34851", "group": "last-30-days", "lat": 25.781585552389824, "lon": -131.80184966762465, "alt_km": 410.15780681359865, "timestamp": "2025-12-07T05:38:08.683769+00:00", "meta": {"OBJECT_NAME": "STARLINK-34851", "OBJECT_ID": "2025-259AB", "EPOCH": "2025-12-06T13:34:33.022272", "MEAN_MOTION": 15.50683144, "ECCENTRICITY": 6.21e-05, "INCLINATION": 43.0006, "RA_OF_ASC_NODE": 83.335, "ARG_OF_PERICENTER": 216.0918, "MEAN_ANOMALY": 143.99, "EPHEMERIS_TYPE": 0, "CLASSIFICATION_TYPE": "U", "NORAD_CAT_ID": 66447, "ELEMENT_SET_NO": 999, "REV_AT_EPOCH": 510, "BSTAR": 0.0017753835, "MEAN_MOTION_DOT": 0.00105618, "MEAN_MOTION_DDOT": 0}, "tle": {"line1": "1 66447U 25259AB  25340.56565998  .00105618  00000+0  17754-2 0  9993", "line2": "2 66447  43.0006  83.3350 0000621 216.0918 143.9900 15.50683144  5109"}}, "geometry": {"type": "Point", "coordinates": [-131.80184966762465, 25.781585552389824]}}, {"type": "Feature", "properties": {"norad_id": 66448, "name": "STARLINK-35355", "group": "last-30-days", "lat": 24.757612490314266, "lon": -130.24750307279783, "alt_km": 411.58894944611166, "timestamp": "2025-12-07T05:38:08.683779+00:00", "meta": {"OBJECT_NAME": "STARLINK-35355", "OBJECT_ID": "2025-259AC", "EPOCH": "2025-12-06T15:06:48.658176", "MEAN_MOTION": 15.50629727, "ECCENTRICITY": 0.00021918, "INCLINATION": 43.0009, "RA_OF_ASC_NODE": 82.9551, "ARG_OF_PERICENTER": 272.9424, "MEAN_ANOMALY": 87.1185, "EPHEMERIS_TYPE": 0, "CLASSIFICATION_TYPE": "U", "NORAD_CAT_ID": 66448, "ELEMENT_SET_NO": 999, "REV_AT_EPOCH": 522, "BSTAR": 0.0019862837, "MEAN_MOTION_DOT": 0.00118175, "MEAN_MOTION_DDOT": 0}, "tle": {"line1": "1 66448U 25259AC  25340.62972984  .00118175  00000+0  19863-2 0  9993", "line2": "2 66448  43.0009  82.9551 0002191 272.9424  87.1185 15.50629727  5222"}}, "geometry": {"type": "Point", "coordinates": [-130.24750307279783, 24.757612490314266]}}, {"type": "Feature", "properties": {"norad_id": 66449, "name": "STARLINK-34720", "group": "last-30-days", "lat": 23.58467558892409, "lon": -128.5270007455655, "alt_km": 411.42706868230016, "timestamp": "2025-12-07T05:38:08.683789+00:00", "meta": {"OBJECT_NAME": "STARLINK-34720", "OBJECT_ID": "2025-259AD", "EPOCH": "2025-12-06T13:33:33.671520", "MEAN_MOTION": 15.50624714, "ECCENTRICITY": 0.00017475, "INCLINATION": 43.0005, "RA_OF_ASC_NODE": 83.3292, "ARG_OF_PERICENTER": 268.6549, "MEAN_ANOMALY": 91.4111, "EPHEMERIS_TYPE": 0, "CLASSIFICATION_TYPE": "U", "NORAD_CAT_ID": 66449, "ELEMENT_SET_NO": 999, "REV_AT_EPOCH": 510, "BSTAR": 0.0020707154, "MEAN_MOTION_DOT": 0.0012327, "MEAN_MOTION_DDOT": 0}, "tle": {"line1": "1 66449U 25259AD  25340.56497305  .00123270  00000+0  20707-2 0  9997", "line2": "2 66449  43.0005  83.3292 0001747 268.6549  91.4111 15.50624714  5107"}}, "geometry": {"type": "Point", "coordinates": [-128.5270007455655, 23.58467558892409]}}, {"type": "Feature", "properties": {"norad_id": 66450, "name": "STARLINK-35334", "group": "last-30-days", "lat": 22.388453472306757, "lon": -126.8313967827251, "alt_km": 411.1859733756237, "timestamp": "2025-12-07T05:38:08.683798+00:00", "meta": {"OBJECT_NAME": "STARLINK-35334", "OBJECT_ID": "2025-259AE", "EPOCH": "2025-12-06T13:33:04.042368", "MEAN_MOTION": 15.50632034, "ECCENTRICITY": 0.00012115, "INCLINATION": 43.0004, "RA_OF_ASC_NODE": 83.3256, "ARG_OF_PERICENTER": 259.9967, "MEAN_ANOMALY": 100.0756, "EPHEMERIS_TYPE": 0, "CLASSIFICATION_TYPE": "U", "NORAD_CAT_ID": 66450, "ELEMENT_SET_NO": 999, "REV_AT_EPOCH": 521, "BSTAR": 0.0023289945, "MEAN_MOTION_DOT": 0.00139004, "MEAN_MOTION_DDOT": 0}, "tle": {"line1": "1 66450U 25259AE  25340.56463012  .00139004  00000+0  23290-2 0  9999", "line2": "2 66450  43.0004  83.3256 0001211 259.9967 100.0756 15.50632034  5219"}}, "geometry": {"type": "Point", "coordinates": [-126.8313967827251, 22.388453472306757]}}, {"type": "Feature", "properties": {"norad_id": 66454, "name": "VIASAT-3 F2", "group": "last-30-days", "lat": 5.3498708696828885, "lon": 39.32630112840118, "alt_km": 15622.109245105192, "timestamp": "2025-12-07T05:38:08.683812+00:00", "meta": {"OBJECT_NAME": "VIASAT-3 F2", "OBJECT_ID": "2025-261A", "EPOCH": "2025-12-04T21:51:56.064384", "MEAN_MOTION": 2.28030055, "ECCENTRICITY": 0.23396731, "INCLINATION": 5.5696, "RA_OF_ASC_NODE": 293.0418, "ARG_OF_PERICENTER": 184.3884, "MEAN_ANOMALY": 199.1368, "EPHEMERIS_TYPE": 0, "CLASSIFICATION_TYPE": "U", "NORAD_CAT_ID": 66454, "ELEMENT_SET_NO": 999, "REV_AT_EPOCH": 47, "BSTAR": 0, "MEAN_MOTION_DOT": -6.1e-07, "MEAN_MOTION_DDOT": 0}, "tle": {"line1": "1 66454U 25261A   25338.91106556 -.00000061  00000+0  00000+0 0  9991", "line2": "2 66454   5.5696 293.0418 2339673 184.3884 199.1368  2.28030055   477"}}, "geometry": {"type": "Point", "coordinates": [39.32630112840118, 5.3498708696828885]}}, {"type": "Feature", "properties": {"norad_id": 66455, "name": "ATLAS 5 CENTAUR R/B", "group": "last-30-days", "lat": 6.058384671293548, "lon": 32.84184249032345, "alt_km": 16172.091515642365, "timestamp": "2025-12-07T05:38:08.683840+00:00", "meta": {"OBJECT_NAME": "ATLAS 5 CENTAUR R/B", "OBJECT_ID": "2025-261B", "EPOCH": "2025-12-06T05:50:34.532736", "MEAN_MOTION": 2.28259369, "ECCENTRICITY": 0.23295733, "INCLINATION": 6.1541, "RA_OF_ASC_NODE": 292.2659, "ARG_OF_PERICENTER": 185.1786, "MEAN_ANOMALY": 206.5245, "EPHEMERIS_TYPE": 0, "CLASSIFICATION_TYPE": "U", "NORAD_CAT_ID": 66455, "ELEMENT_SET_NO": 999, "REV_AT_EPOCH": 50, "BSTAR": 0, "MEAN_MOTION_DOT": -6.9e-07, "MEAN_MOTION_DDOT": 0}, "tle": {"line1": "1 66455U 25261B   25340.24345524 -.00000069  00000+0  00000+0 0  9999", "line2": "2 66455   6.1541 292.2659 2329573 185.1786 206.5245  2.28259369   502"}}, "geometry": {"type": "Point", "coordinates": [32.84184249032345, 6.058384671293548]}}, {"type": "Feature", "properties": {"norad_id": 66456, "name": "STARLINK-35643", "group": "last-30-days", "lat": 4.889266419700338, "lon": -81.91669077382122, "alt_km": 429.3855694702752, "timestamp": "2025-12-07T05:38:08.683853+00:00", "meta": {"OBJECT_NAME": "STARLINK-35643", "OBJECT_ID": "2025-262A", "EPOCH": "2025-12-06T14:00:01.999872", "MEAN_MOTION": 15.48423166, "ECCENTRICITY": 0.00011412, "INCLINATION": 43.0005, "RA_OF_ASC_NODE": 107.1405, "ARG_OF_PERICENTER": 277.5357, "MEAN_ANOMALY": 222.8893, "EPHEMERIS_TYPE": 0, "CLASSIFICATION_TYPE": "U", "NORAD_CAT_ID": 66456, "ELEMENT_SET_NO": 999, "REV_AT_EPOCH": 464, "BSTAR": -0.043534398, "MEAN_MOTION_DOT": -0.02099872, "MEAN_MOTION_DDOT": 0}, "tle": {"line1": "1 66456U 25262A   25340.58335648 -.02099872  00000+0 -43534-1 0  9998", "line2": "2 66456  43.0005 107.1405 0001141 277.5357 222.8893 15.48423166  4640"}}, "geometry": {"type": "Point", "coordinates": [-81.91669077382122, 4.889266419700338]}}, {"type": "Feature", "properties": {"norad_id": 66457, "name": "STARLINK-35466", "group": "last-30-days", "lat": -3.2626691804437318, "lon": -73.17210733945244, "alt_km": 421.85659796849905, "timestamp": "2025-12-07T05:38:08.683864+00:00", "meta": {"OBJECT_NAME": "STARLINK-35466", "OBJECT_ID": "2025-262B", "EPOCH": "2025-12-06T14:00:01.999872", "MEAN_MOTION": 15.50958088, "ECCENTRICITY": 7.658e-05, "INCLINATION": 43.0004, "RA_OF_ASC_NODE": 107.1263, "ARG_OF_PERICENTER": 265.2967, "MEAN_ANOMALY": 240.8087, "EPHEMERIS_TYPE": 0, "CLASSIFICATION_TYPE": "U", "NORAD_CAT_ID": 66457, "ELEMENT_SET_NO": 999, "REV_AT_EPOCH": 464, "BSTAR": -0.036037364, "MEAN_MOTION_DOT": -0.0192292, "MEAN_MOTION_DDOT": 0}, "tle": {"line1": "1 66457U 25262B   25340.58335648 -.01922920  00000+0 -36037-1 0  9997", "line2": "2 66457  43.0004 107.1263 0000765 265.2967 240.8087 15.50958088  4648"}}, "geometry": {"type": "Point", "coordinates": [-73.17210733945244, -3.2626691804437318]}}, {"type": "Feature", "properties": {"norad_id": 66458, "name": "STARLINK-35684", "group": "last-30-days", "lat": 0.3521073873016401, "lon": -77.04468303478262, "alt_km": 425.4913996165287, "timestamp": "2025-12-07T05:38:08.683876+00:00", "meta": {"OBJECT_NAME": "STARLINK-35684", "OBJECT_ID": "2025-262C", "EPOCH": "2025-12-06T14:00:01.999872", "MEAN_MOTION": 15.4974832, "ECCENTRICITY": 7.832e-05, "INCLINATION": 43.0002, "RA_OF_ASC_NODE": 107.1311, "ARG_OF_PERICENTER": 248.2268, "MEAN_ANOMALY": 255.7201, "EPHEMERIS_TYPE": 0, "CLASSIFICATION_TYPE": "U", "NORAD_CAT_ID": 66458, "ELEMENT_SET_NO": 999, "REV_AT_EPOCH": 464, "BSTAR": -0.04129339, "MEAN_MOTION_DOT": -0.02089027, "MEAN_MOTION_DDOT": 0}, "tle": {"line1": "1 66458U 25262C   25340.58335648 -.02089027  00000+0 -41293-1 0  9991", "line2": "2 66458  43.0002 107.1311 0000783 248.2268 255.7201 15.49748320  4643"}}, "geometry": {"type": "Point", "coordinates": [-77.04468303478262, 0.3521073873016401]}}]}